M2 PATHFINDER           
1 45727U 20037E   26068.47969609  .00004468  00000+0  32592-3 0  9994
2 45727  97.8158 258.5983 0012405 127.8041 232.4310 15.04175941310501
STARLINK-30371          
1 57735U 23131D   26068.26992716 -.00000252  00000+0 -36128-5 0  9996
2 57735  43.0017 173.8442 0001576 268.2057  91.8605 15.02535192139861
